KUIPER-00044            
1 64505U 25134F   25361.83087433  .00002973  00000+0  41862-3 0  9992
2 64505  51.8988 204.3537 0012072  38.5461 321.6361 14.79946940 29246
KUIPER-00046            
1 64506U 25134G   25361.75145939  .00003282  00000+0  45071-3 0  9990
2 64506  51.8972 201.0028 0013083  47.1469 313.0590 14.80729581 29281
KUIPER-00047            
1 64507U 25134H   25361.83336806 -.00165172  00000+0 -22132-1 0  9995
2 64507  51.8978 172.1482 0001031 102.8649 155.1447 14.80011220  4439
KUIPER-00048            
1 64508U 25134J   25361.79732316  .00003329  00000+0  46535-3 0  9995
2 64508  51.8983 173.4915 0002588 181.5867 178.5087 14.79944388 29675
KUIPER-00049            
1 64509U 25134K   25361.78221727  .00003081  00000+0  43295-3 0  9999
2 64509  51.8988 187.0293 0003120  62.6732 297.4548 14.79942019 29485
KUIPER-00050            
1 64510U 25134L   25361.80132789  .00005199  00000+0  47134-3 0  9991
2 64510  51.8883 178.6189 0005077  83.8185 276.3363 14.96788400 29607
KUIPER-00051            
1 64511U 25134M   25361.78498657  .00002977  00000+0  41946-3 0  9994
2 64511  51.9001 184.5857 0003106  67.5647 292.5644 14.79932252 29511
KUIPER-00052            
1 64512U 25134N   25361.83336806  .00121943  00000+0  80552-3 0  9999
2 64512  51.8589 117.7403 0001473 113.0160 317.0489 15.74706282  5803
